{
    "links": {
        "self": "http://www.neowsapp.com/rest/v1/neo/3036140?api_key=iIulBulltgU6a56xZRHN4H3l9WmuAYTsLGpBGhQ2"
    },
    "id": "3036140",
    "neo_reference_id": "3036140",
    "name": "(2000 FX13)",
    "designation": "2000 FX13",
    "nasa_jpl_url": "http://ssd.jpl.nasa.gov/sbdb.cgi?sstr=3036140",
    "absolute_magnitude_h": 19.9,
    "estimated_diameter": {
        "kilometers": {
            "estimated_diameter_min": 0.2783267681,
            "estimated_diameter_max": 0.6223575734
        },
        "meters": {
            "estimated_diameter_min": 278.3267680719,
            "estimated_diameter_max": 622.3575733667
        },
        "miles": {
            "estimated_diameter_min": 0.1729441822,
            "estimated_diameter_max": 0.3867149477
        },
        "feet": {
            "estimated_diameter_min": 913.1455937611,
            "estimated_diameter_max": 2041.8556210042
        }
    },
    "is_potentially_hazardous_asteroid": false,
    "close_approach_data": [
        {
            "close_approach_date": "1988-01-23",
            "close_approach_date_full": "1988-Jan-23 10:07",
            "epoch_date_close_approach": 569930820000,
            "relative_velocity": {
                "kilometers_per_second": "9.8973606906",
                "kilometers_per_hour": "35630.4984862179",
                "miles_per_hour": "22139.4061288391"
            },
            "miss_distance": {
                "astronomical": "0.0622543844",
                "lunar": "24.2169555316",
                "kilometers": "9313123.304401228",
                "miles": "5786906.4789358264"
            },
            "orbiting_body": "Mars"
        },
        {
            "close_approach_date": "2000-03-16",
            "close_approach_date_full": "2000-Mar-16 14:05",
            "epoch_date_close_approach": 953215500000,
            "relative_velocity": {
                "kilometers_per_second": "4.6348940066",
                "kilometers_per_hour": "16685.6184238031",
                "miles_per_hour": "10367.7944033903"
            },
            "miss_distance": {
                "astronomical": "0.3555944682",
                "lunar": "138.3262481298",
                "kilometers": "53196175.026502734",
                "miles": "33054570.4006723692"
            },
            "orbiting_body": "Earth"
        }
    ],
    "orbital_data": {
        "orbit_id": "11",
        "orbit_determination_date": "2017-04-06 09:17:03",
        "first_observation_date": "2000-03-04",
        "last_observation_date": "2000-04-30",
        "data_arc_in_days": 57,
        "observations_used": 26,
        "orbit_uncertainty": "7",
        "minimum_orbit_intersection": ".307957",
        "jupiter_tisserand_invariant": "3.944",
        "epoch_osculation": "2459000.5",
        "eccentricity": ".3368255484366267",
        "semi_major_axis": "1.824875809258366",
        "inclination": "11.53741466489827",
        "ascending_node_longitude": "40.5266031019257",
        "orbital_period": "900.4267697440408",
        "perihelion_distance": "1.210211013976184",
        "perihelion_argument": "97.88192401995994",
        "aphelion_distance": "2.439540604540548",
        "perihelion_time": "2458769.083470163502",
        "mean_anomaly": "92.52273870624835",
        "mean_motion": ".3998104144575079",
        "equinox": "J2000",
        "orbit_class": {
            "orbit_class_type": "AMO",
            "orbit_class_description": "Near-Earth asteroid orbits similar to that of 1221 Amor",
            "orbit_class_range": "1.017 AU < q (perihelion) < 1.3 AU"
        }
    },
    "is_sentry_object": false
}